format  = 'OEF2.0'       ! file format
rectype = 'ML'           ! record type (1L/ML)
refsys  = ECLM J2000     ! default reference system
END_OF_HEADER
410777
! Equinoctial elements: a, e*sin(LP), e*cos(LP), tan(i/2)*sin(LN), tan(i/2)*cos(LN), mean long.
 EQU   1.16267296550723E+00  -0.460663793658526   0.174881261106719    0.004551532872859    0.027004949765092  25.7134988565409
 MJD     56013.440131620 TDT
 MAG  22.130  0.150
! Non-grav parameters: model used, actual number in use, dimension, list of solve for parameters to be currently determined
 LSP   1  2    7    2
! Vector of dynamical parameters.
 NGR   0.00000000000000E+00 -1.73259335120942E-05
! A priori value and standard deviation (only Yarkovsky effect)
 APR YAR   0.00000000000000E+00  3.25000000000000E-04
! RMS    2.23435E-09   3.24388E-08   6.16972E-08   6.46816E-09   5.19933E-08   6.23879E-06   3.25873E-04
! EIG   3.16388E-10   3.73617E-09   1.23444E-08   2.25802E-08   5.22095E-08   1.25320E-07   3.25873E-04
! WEA   0.00000   0.00001  -0.00002   0.00000   0.00000   0.00005   1.00000
 COV   4.992313017024002E-18 -1.104365695520281E-17  4.780233634249979E-17
 COV   1.993882570353555E-18 -6.566388708703608E-18  2.444757629625558E-15
 COV   3.618191981524262E-13  1.052272589620976E-15 -1.635436788111896E-15
 COV   2.850754420896104E-17 -2.966010717161232E-16 -1.760023592582332E-13
 COV   1.504994654201783E-12  3.806545244411359E-15  6.139740249845984E-17
 COV   2.793980787171492E-17  3.393763203704438E-13 -1.823533607382067E-12
 COV   4.183705074091671E-17  1.598442034052687E-16 -6.681291080331678E-16
 COV  -3.478838815112794E-14  2.703306453159056E-15  2.857320409741975E-14
 COV   2.237925434776504E-13  3.892245973328332E-11  3.254044984081833E-10
 COV   1.061933498433250E-07
 NOR   9.862711496113605E+18  6.924193455125687E+17 -6.926005346184204E+17
 NOR   1.168043252356657E+17  9.387451346837368E+15  9.244736902927184E+15
 NOR  -8.362013746892634E+13  5.786608170399186E+16 -4.710499552572004E+16
 NOR  -5.955247220930266E+15  2.206903303231908E+15  6.779364481709268E+14
 NOR  -6.072140404232137E+12  5.124152225362621E+16 -1.631030327960201E+16
 NOR   1.354060802013605E+14 -6.663592652790155E+14  5.943575241080717E+12
 NOR   6.826410193363202E+16 -5.438265906609002E+15  1.208902525964292E+14
 NOR  -9.302673751475776E+11  8.755287390407606E+14  8.223406609584484E+12
 NOR  -8.976154420694398E+10  8.986131121402449E+12 -8.006249733475658E+10
 NOR   7.276598911206015E+08
!MOID  0.00248    0
!NODES -0.19846 -0.02490
